[
    {
        "CCSDS_OMM_VERS": "3.0",
        "COMMENT": "GENERATED VIA SPACE-TRACK.ORG API",
        "CREATION_DATE": "2025-04-14T03:05:54",
        "ORIGINATOR": "18 SPCS",
        "OBJECT_NAME": "BEIDOU 3 IGSO-1",
        "OBJECT_ID": "2019-023A",
        "CENTER_NAME": "EARTH",
        "REF_FRAME": "TEME",
        "TIME_SYSTEM": "UTC",
        "MEAN_ELEMENT_THEORY": "SGP4",
        "EPOCH": "2025-04-13T10:54:02.403936",
        "MEAN_MOTION": "1.00265348",
        "ECCENTRICITY": "0.00214160",
        "INCLINATION": "58.0877",
        "RA_OF_ASC_NODE": "42.0907",
        "ARG_OF_PERICENTER": "227.2774",
        "MEAN_ANOMALY": "214.8628",
        "EPHEMERIS_TYPE": "0",
        "CLASSIFICATION_TYPE": "U",
        "NORAD_CAT_ID": "44204",
        "ELEMENT_SET_NO": "999",
        "REV_AT_EPOCH": "290",
        "BSTAR": "0.00000000000000",
        "MEAN_MOTION_DOT": "-0.00000225",
        "MEAN_MOTION_DDOT": "0.0000000000000",
        "SEMIMAJOR_AXIS": "42166.537",
        "PERIOD": "1436.189",
        "APOAPSIS": "35878.705",
        "PERIAPSIS": "35698.098",
        "OBJECT_TYPE": "PAYLOAD",
        "RCS_SIZE": "LARGE",
        "COUNTRY_CODE": "PRC",
        "LAUNCH_DATE": "2019-04-20",
        "SITE": "XSC",
        "DECAY_DATE": null,
        "FILE": "4701263",
        "GP_ID": "285539631",
        "TLE_LINE0": "0 BEIDOU 3 IGSO-1",
        "TLE_LINE1": "1 44204U 19023A   25103.45419449 -.00000225  00000-0  00000-0 0  9990",
        "TLE_LINE2": "2 44204  58.0877  42.0907 0021416 227.2774 214.8628  1.00265348  2909"
    }
]